GOES 17                 
1 43226U 18022A   24169.41457468 -.00000069  00000+0  00000+0 0  9995
2 43226   0.0482 155.2292 0000888 317.1460 198.3195  1.00272114 23105
FENGYUN 2H              
1 43491U 18050A   24169.82340962 -.00000107  00000+0  00000+0 0  9998
2 43491   1.1443  87.2792 0001725  32.8145 162.1468  1.00269727 22128
METOP-C                 
1 43689U 18087A   24169.91556426  .00000190  00000+0  10690-3 0  9992
2 43689  98.7233 229.1839 0003163  90.8753 269.2787 14.21475293291228
GEO-KOMPSAT-2A          
1 43823U 18100A   24169.55604927 -.00000322  00000+0  00000+0 0  9996
2 43823   0.0460 149.2508 0002459 299.0011 146.4783  1.00272371 20315
METEOR-M2 2             
1 44387U 19038A   24169.92344879  .00000059  00000+0  45474-4 0  9996
2 44387  98.8265 139.1500 0001105  18.5176 341.6042 14.23894557257495
ARKTIKA-M 1             
1 47719U 21016A   24169.25177733  .00000188  00000+0  00000+0 0  9990
2 47719  63.1394 151.7679 6941537 268.6991  17.9346  2.00610662 24142
FENGYUN 3E              
1 49008U 21062A   24169.91121447  .00000040  00000+0  39414-4 0  9991
2 49008  98.7315 171.1805 0002424  55.3238 304.8166 14.19759233153097
GOES 18                 
1 51850U 22021A   24169.79702095  .00000119  00000+0  00000+0 0  9996
2 51850   0.0439 161.0212 0000534 271.5836 343.8503  1.00271024  8454
NOAA 21 (JPSS-2)        
1 54234U 22150A   24169.87056381  .00000119  00000+0  77534-4 0  9998
2 54234  98.7518 107.7563 0001752 107.8423 252.2945 14.19527293 83077
METEOSAT-12 (MTG-I1)    
1 54743U 22170C   24169.89146657  .00000014  00000+0  00000+0 0  9996
2 54743   0.5127  41.3734 0001850  42.5354 143.1564  1.00274140  5669
TIANMU-1 03             
1 55973U 23039A   24169.91489940  .00008689  00000+0  36661-3 0  9997
2 55973  97.4682 320.5271 0009192 154.7813 205.3875 15.23494043 68961
TIANMU-1 04             
1 55974U 23039B   24169.89781334  .00009132  00000+0  38411-3 0  9996
2 55974  97.4604 320.0715 0009891 152.5846 207.5914 15.23577504 68953
TIANMU-1 05             
1 55975U 23039C   24169.94727601  .00008629  00000+0  36330-3 0  9998
2 55975  97.4652 320.4480 0008351 160.8369 199.3183 15.23578097 68956
TIANMU-1 06             
1 55976U 23039D   24169.93116707  .00008249  00000+0  34809-3 0  9994
2 55976  97.4666 320.5491 0008036 166.3462 193.7994 15.23516498 68955
METEOR-M2 3             
1 57166U 23091A   24169.88839421  .00000029  00000+0  31722-4 0  9994
2 57166  98.7125 224.5558 0005004 120.7627 239.4044 14.23899347 50724
TIANMU-1 07             
1 57399U 23101A   24169.88699475  .00005788  00000+0  29467-3 0  9996
2 57399  97.3634 227.0200 0005499 168.1634 191.9730 15.17171958 50534
TIANMU-1 08             
1 57400U 23101B   24169.92231860  .00005872  00000+0  29868-3 0  9993
2 57400  97.3622 226.9273 0007506 178.6603 181.4652 15.17183475 50539
TIANMU-1 09             
1 57401U 23101C   24169.90522165  .00006459  00000+0  32837-3 0  9995
2 57401  97.3578 226.7529 0008044 175.0882 185.0432 15.17163356 50532
TIANMU-1 10             
1 57402U 23101D   24169.93735460  .00005649  00000+0  28767-3 0  9990
2 57402  97.3657 227.0600 0010232 176.0174 184.1143 15.17142917 50531
FENGYUN 3F              
1 57490U 23111A   24169.93600678  .00000117  00000+0  75903-4 0  9990
2 57490  98.7695 239.0605 0002014  92.2808 267.8598 14.19826896 45370
ARKTIKA-M 2             
1 58584U 23198A   24169.48278552  .00000150  00000+0  00000+0 0  9990
2 58584  63.2417 235.5556 6979408 269.9021  17.2518  2.00611967  3681
TIANMU-1 11             
1 58645U 23205A   24169.91170139  .00004968  00000+0  26813-3 0  9992
2 58645  97.4029 194.9823 0012635  49.4406 310.7924 15.15123692 26628
TIANMU-1 12             
1 58646U 23205B   24169.86117996  .00005425  00000+0  29226-3 0  9999
2 58646  97.4016 194.8642 0010996  43.9435 316.2670 15.15160970 26609
TIANMU-1 13             
1 58647U 23205C   24169.95992661  .00005955  00000+0  32059-3 0  9996
2 58647  97.4044 194.9546 0010405  30.0619 330.1208 15.15155262 26612
TIANMU-1 14             
1 58648U 23205D   24169.87775001  .00005956  00000+0  32054-3 0  9991
2 58648  97.3971 194.7387 0010926  30.4838 329.7028 15.15158776 26603
TIANMU-1 19             
1 58660U 23208A   24169.88477053  .00005869  00000+0  31661-3 0  9991
2 58660  97.4111 282.2568 0009078  12.0706 348.0742 15.15098466 26273
TIANMU-1 20             
1 58661U 23208B   24169.88795868  .00005820  00000+0  30695-3 0  9992
2 58661  97.4039 282.2338 0010138  21.3384 338.8270 15.15894832 26287
TIANMU-1 21             
1 58662U 23208C   24169.88054556  .00006521  00000+0  33495-3 0  9995
2 58662  97.4078 282.4863 0009765  21.6342 338.5302 15.16784500 26292
TIANMU-1 22             
1 58663U 23208D   24169.90123721  .00006016  00000+0  32482-3 0  9994
2 58663  97.4098 282.3488 0005834  39.6894 320.4765 15.15077087 26287
TIANMU-1 15             
1 58700U 24004A   24169.94171269  .00005398  00000+0  29166-3 0  9992
2 58700  97.4620 351.0326 0011081  56.1325 304.0960 15.15062670 24880
TIANMU-1 16             
1 58701U 24004B   24169.92459475  .00006026  00000+0  32487-3 0  9998
2 58701  97.4547 350.8952 0011126  61.2807 298.9542 15.15097364 24888
TIANMU-1 17             
1 58702U 24004C   24169.90951200  .00005886  00000+0  31775-3 0  9992
2 58702  97.4592 351.0102 0008924  57.8399 302.3698 15.15073775 24879
TIANMU-1 18             
1 58703U 24004D   24169.89274914  .00005193  00000+0  28058-3 0  9992
2 58703  97.4608 351.0655 0008026  50.2308 309.9630 15.15105731 24878
INSAT-3DS               
1 58990U 24033A   24166.45222727 -.00000153  00000+0  00000+0 0  9991
2 58990   0.0993  93.3619 0011635 357.7741  57.9093  1.00271183   944
METEOR-M2 4             
1 59051U 24039A   24169.90863199  .00000061  00000+0  46727-4 0  9991
2 59051  98.5975 131.7840 0008077 117.8947 242.3050 14.22232617 15594".to_string();
